IXPE                    
1 49954U 21121A   24230.16667824  .00014282  00000+0  10721-2 0  9998
2 49954   0.2301 301.0740 0009378 104.2898  64.5035 14.99177727147068
